IRIDIUM 63              
1 25286U 98021B   25338.13024584  .00000714  00000+0  23581-3 0  9994
2 25286  86.3991  10.8276 0002415  92.4754 267.6720 14.36725801448247
IRIDIUM 69              
1 25319U 98026A   25338.10557241  .00001058  00000+0  32190-3 0  9992
2 25319  86.3986  23.5888 0003264 140.9097 219.2339 14.41204061447536
IRIDIUM 71              
1 25320U 98026B   25338.16239004  .00000570  00000+0  17032-3 0  9990
2 25320  86.3984  18.2382 0000973 165.0443 195.0786 14.41310581448075
IRIDIUM 73              
1 25344U 98032C   25338.23330447  .00001321  00000+0  32232-3 0  9998
2 25344  86.4402 334.6052 0002789 100.7183 259.4337 14.51972294455239
IRIDIUM 82              
1 25467U 98051A   25338.16940320  .00077622  00000+0  14799-2 0  9998
2 25467  86.3623  25.4206 0063297   8.6961 351.5375 15.45660241450079
